#cP2024  3  1  6  0  0.00000000     577 d+D   IGS20 EXT AIUB
## 2303 453600.00000000   300.00000000 60370 0.2500000000000
+   79   G01G02G03G04G05G06G07G08G09G10G11G12G13G14G15G16G17
+        G18G19G20G21G22G23G24G25G26G27G28G29G30G31G32R01R02
+        R03R04R05R07R08R09R11R12R13R14R15R16R17R18R19R20R21
+        R22R24R26E02E03E04E05E07E08E09E10E11E12E13E14E15E18
+        E19E21E24E25E26E27E30E31E33E34E36  0  0  0  0  0  0
++         8  7  5  6  7  7  6  6  6  6  7  7  7  5  7  7  7
++         8  7  7  7  7  6  7  5  6  6  6  7  6  7  6  8  7
++         8  7  7  7  7  6  6  6  8  6  7  7  8  7  8  9  8
++         6  8  8  6  7  7  7  7  7  6  7  6  6  7  6  7  7
++         6  6  6  6  7  6  7  6  7  6  7  0  0  0  0  0  0
%c M  cc GPS ccc cccc cccc cccc cccc ccccc ccccc ccccc ccccc
%c cc cc ccc ccc cccc cccc cccc cccc ccccc ccccc ccccc ccccc
%f  1.2500000  1.025000000  0.00000000000  0.000000000000000
%f  0.0000000  0.000000000  0.00000000000  0.000000000000000
%i    0    0    0    0      0      0      0      0         0
%i    0    0    0    0      0      0      0      0         0
/* Center for Orbit Determination in Europe (CODE)          
/* Ultra-rapid GRE orbits starting year-day 24061 06 hour   
/* Observed/predicted: 25/23 hours (data used up to 062G)   
/* PCV:IGS20      OL/AL:FES2014b NONE     YN ORB:CoN CLK:BRD
*  2024  3  2  7 20  0.00000000
PG01 -11503.051321  17629.310038  15649.214541    171.921565               P   P
PG02 -14180.118684   8929.834683  21038.323217   -476.910682               P   P
PG03 -23497.418732  12241.243037   -291.257483    227.101337               P   P
PG04 -18074.835699   3621.697600 -19153.224341    304.971320               P   P
PG05  23340.480067  -3649.148440 -12399.702017   -163.846758               P   P
PG06   6195.347638  23001.549077 -11559.503861    385.257081               P   P
PG07  -5549.431201  24870.283841  -6058.614658    -74.730444               P   P
PG08 -23076.498934  -3021.703201  13082.296866     24.321263               P   P
PG09  -5725.305077  14359.329223 -21674.973611    110.464164               P   P
PG10  -2091.326603 -15273.885047  21791.937310      0.960179               P   P
PG11  12252.976933  13224.610551 -19495.960054   -593.665704               P   P
PG12  24396.958531 -10400.133496    128.760132   -483.245821               P   P
PG13  22232.026517  12835.914113   7050.154587    630.468669               P   P
PG14  -2258.091866  17181.379734  20101.883056    339.893603               P   P
PG15  23318.687582    433.060290  12401.478301    133.338857               P   P
PG16 -21300.694754  -3422.134509 -16123.566777   -350.585178               P   P
PG17   6711.834128  19465.534221  17113.673750    715.169641               P   P
PG18   5432.405308 -25300.190191  -5517.598154   -567.143717               P   P
PG19  15151.132681  20059.257149   8937.137832    448.222774               P   P
PG20  16092.869734   5823.173435 -20209.421467    385.469182               P   P
PG21 -15277.972976   2224.951524  22032.897977    132.938272               P   P
PG22   5521.274999  14377.047365  22068.221957     22.478740               P   P
PG23  10879.675588 -18222.056707  15873.361582    167.927145               P   P
PG24  14845.252399  -6742.278819  20489.663606   -440.250893               P   P
PG25  18163.879549 -17087.037894  -9075.435028    490.173486               P   P
PG26 -12781.110773 -10460.007080 -20999.603735    184.289398               P   P
PG27 -23311.712563 -12980.894291   2202.502594     -8.580108               P   P
PG28  -5825.570467 -24357.474824  -8869.446668   -149.712097               P   P
PG29   8505.300040 -12342.633531 -21975.204382   -605.797220               P   P
PG30   1677.958119  26065.402668   4070.668373   -425.379847               P   P
PG31 -10811.380723 -17352.746460 -16944.722778   -227.908138               P   P
PG32 -11151.518725 -19267.881630  14843.040204   -614.226338               P   P
PR01   9289.556441  -9089.874595  21958.033664     78.586705               P   P
PR02  -9565.974138 -11713.973268  20611.425611    -22.541033               P   P
PR03 -23139.057885  -7921.686147   7402.926892     95.576227               P   P
PR04 -23651.944956   -200.894421  -9534.081822    225.777166               P   P
PR05 -11583.442128   7749.905111 -21352.622379    127.763975               P   P
PR07  23471.519094   7537.926096  -6406.038720     77.023804               P   P
PR08  23520.073484   -240.545136   9893.891440    -74.586406               P   P
PR09  -1955.116009  17205.610346  18710.103660    173.034519               P   P
PR11  17919.898306 -10350.102373  14930.507717     32.588996               P   P
PR12  14953.503731 -20324.065050  -3668.075827     37.330483               P   P
PR13   4344.928310 -18256.940501 -17293.679231    -44.894405               P   P
PR14 -10960.706245  -4064.661073 -22664.619340     26.137568               P   P
PR15 -18294.095371  11339.742284 -13673.913079     81.724687               P   P
PR16 -14978.848932  20339.934281   3426.261292     23.686327               P   P
PR17 -12817.120375 -15937.065497  15231.986961     65.580285               P   P
PR18 -10905.578081    164.851759  23078.438304    130.082788               P   P
PR19  -4868.743806  14984.336535  20059.725916   -267.840803               P   P
PR20   6132.355626  24614.282074   2440.481423   -109.145593               P   P
PR21  12657.972192  15941.677631 -15383.471552    -81.275107               P   P
PR22  10957.832127  -1225.945817 -22974.084801    110.756416               P   P
PR24  -7408.181636 -24337.813811  -1793.095736    -46.121698               P   P
PR26  23930.280002    168.439212   8888.155812   -195.561533               P   P
PE02  24343.415364 -15923.635143  -5434.053994    107.841436               P   P
PE03  15909.272306  -8953.135459  23302.462848    -97.457627               P   P
PE04   3888.133744  20363.219919 -21117.470550   -339.996262               P   P
PE05  26076.797255   7488.344152  11843.576788   4725.188562               P   P
PE07 -20820.440419 -19833.078600   7014.693279   -106.653066               P   P
PE08  -3192.149481 -20032.447721  21556.343496   -232.408636               P   P
PE09  20796.625810  19826.322430  -7133.977110   -355.615274               P   P
PE10   3721.214654  28067.526360  -8630.934481   -606.123037               P   P
PE11   9842.161962  21747.220200 -17496.175590   3208.643014               P   P
PE12  -2356.728007  29487.681568    526.145361   -930.125972               P   P
PE13  -9460.261820 -22293.410303  17036.758986    -20.368525               P   P
PE14 -20964.800076  -8945.972365   5989.144203 999999.999999               P   P
PE15   2664.335689 -29468.533858  -1072.728410    -88.867598               P   P
PE18  28754.255075   8154.962350 -12680.420875 999999.999999               P   P
PE19 -17629.385511   7016.189862 -22708.772079   -511.089324               P   P
PE21 -26668.882941   3475.567852 -12379.889678   -581.804320               P   P
PE24  13117.396798  11912.798113  23684.384490   -628.306319               P   P
PE25  26542.800061  -3168.061457  12700.551347      1.591289               P   P
PE26 -16088.140563  -1494.129629  24808.374127    384.518776               P   P
PE27 -13528.173285 -11581.659243 -23652.266751   -288.341173               P   P
PE30   7682.364304 -19688.491766 -20735.706425    -52.644420               P   P
PE31  -7452.566932  19645.584845  20850.280448    -17.264263               P   P
PE33 -13259.617941  18764.336584  18664.807255      8.413502               P   P
PE34  13023.313366 -19288.205971 -18291.914394    -97.660229               P   P
PE36  15859.064166   2193.594645 -24891.301804   -193.492771               P   P
EOF
